start=new Date('2023-06-05T00:00:00.000Z').valueOf();
sats=[{"BSTAR":"0.00013651000000","ECCENTRICITY":"0.00011360","LAUNCH_DATE":"2022-08-10","MEAN_MOTION_DDOT":"0.0000000000000","ARG_OF_PERICENTER":"82.9852","CLASSIFICATION_TYPE":"U","MEAN_ANOMALY":"277.1269","MEAN_MOTION":"15.08843453","EPOCH":"2023-06-04T20:15:12.614400","SEMIMAJOR_AXIS":"6917.870","OBJECT_ID":"2022-097AK","MEAN_ELEMENT_THEORY":"SGP4","TLE_LINE1":"1 53421U 22097AK  23155.84389600  .00001886  00000-0  13651-3 0  9991","TIME_SYSTEM":"UTC","APOAPSIS":"540.521","RCS_SIZE":"LARGE","MEAN_MOTION_DOT":"0.00001886","EPHEMERIS_TYPE":"0","OBJECT_NAME":"STARLINK-4545","FILE":"3925173","COUNTRY_CODE":"US","OBJECT_TYPE":"PAYLOAD","PERIAPSIS":"538.949","ELEMENT_SET_NO":"999","DECAY_DATE":null,"RA_OF_ASC_NODE":"323.0016","REF_FRAME":"TEME","INCLINATION":"53.2161","GP_ID":"233218457","TLE_LINE2":"2 53421  53.2161 323.0016 0001136  82.9852 277.1269 15.08843453 46325","CENTER_NAME":"EARTH","SITE":"AFETR","PERIOD":"95.437","REV_AT_EPOCH":"4632","NORAD_CAT_ID":"53421"},{"CLASSIFICATION_TYPE":"U","MEAN_ANOMALY":"274.5047","ARG_OF_PERICENTER":"85.6081","EPOCH":"2023-06-04T21:29:23.705664","SEMIMAJOR_AXIS":"6917.868","MEAN_MOTION":"15.08844109","OBJECT_ID":"2022-097AL","MEAN_ELEMENT_THEORY":"SGP4","ECCENTRICITY":"0.00011910","BSTAR":"0.00009018800000","MEAN_MOTION_DDOT":"0.0000000000000","LAUNCH_DATE":"2022-08-10","MEAN_MOTION_DOT":"0.00001148","RCS_SIZE":"LARGE","EPHEMERIS_TYPE":"0","TLE_LINE1":"1 53422U 22097AL  23155.89541326  .00001148  00000-0  90188-4 0  9994","TIME_SYSTEM":"UTC","APOAPSIS":"540.557","REF_FRAME":"TEME","RA_OF_ASC_NODE":"322.7738","DECAY_DATE":null,"INCLINATION":"53.2172","GP_ID":"233219209","TLE_LINE2":"2 53422  53.2172 322.7738 0001191  85.6081 274.5047 15.08844109 46357","OBJECT_NAME":"STARLINK-4546","FILE":"3925173","COUNTRY_CODE":"US","OBJECT_TYPE":"PAYLOAD","ELEMENT_SET_NO":"999","PERIAPSIS":"538.909","PERIOD":"95.437","REV_AT_EPOCH":"4635","NORAD_CAT_ID":"53422","CENTER_NAME":"EARTH","SITE":"AFETR"},{"REV_AT_EPOCH":"4632","NORAD_CAT_ID":"53423","PERIOD":"95.437","CENTER_NAME":"EARTH","SITE":"AFETR","GP_ID":"233218959","TLE_LINE2":"2 53423  53.2168 323.0263 0000981  98.6517 261.4587 15.08845236 46327","DECAY_DATE":null,"RA_OF_ASC_NODE":"323.0263","REF_FRAME":"TEME","INCLINATION":"53.2168","OBJECT_TYPE":"PAYLOAD","COUNTRY_CODE":"US","PERIAPSIS":"539.051","ELEMENT_SET_NO":"999","OBJECT_NAME":"STARLINK-4539","FILE":"3925173","RCS_SIZE":"LARGE","MEAN_MOTION_DOT":"0.00001453","EPHEMERIS_TYPE":"0","APOAPSIS":"540.408","TLE_LINE1":"1 53423U 22097AM  23155.84117115  .00001453  00000-0  10933-3 0  9993","TIME_SYSTEM":"UTC","OBJECT_ID":"2022-097AM","MEAN_ELEMENT_THEORY":"SGP4","ARG_OF_PERICENTER":"98.6517","CLASSIFICATION_TYPE":"U","MEAN_ANOMALY":"261.4587","MEAN_MOTION":"15.08845236","SEMIMAJOR_AXIS":"6917.864","EPOCH":"2023-06-04T20:11:17.187360","LAUNCH_DATE":"2022-08-10","MEAN_MOTION_DDOT":"0.0000000000000","ECCENTRICITY":"0.00009810","BSTAR":"0.00010933000000"},{"INCLINATION":"53.2165","DECAY_DATE":null,"REF_FRAME":"TEME","RA_OF_ASC_NODE":"322.8068","TLE_LINE2":"2 53424  53.2165 322.8068 0001055  93.8463 266.2650 15.08843367 46355","GP_ID":"233217707","FILE":"3925173","OBJECT_NAME":"STARLINK-4532","PERIAPSIS":"539.005","ELEMENT_SET_NO":"999","COUNTRY_CODE":"US","OBJECT_TYPE":"PAYLOAD","PERIOD":"95.437","NORAD_CAT_ID":"53424","REV_AT_EPOCH":"4635","SITE":"AFETR","CENTER_NAME":"EARTH","MEAN_MOTION":"15.08843367","EPOCH":"2023-06-04T21:18:47.784384","SEMIMAJOR_AXIS":"6917.870","ARG_OF_PERICENTER":"93.8463","CLASSIFICATION_TYPE":"U","MEAN_ANOMALY":"266.2650","MEAN_ELEMENT_THEORY":"SGP4","OBJECT_ID":"2022-097AN","ECCENTRICITY":"0.00010550","BSTAR":"0.00010903000000","LAUNCH_DATE":"2022-08-10","MEAN_MOTION_DDOT":"0.0000000000000","EPHEMERIS_TYPE":"0","RCS_SIZE":"LARGE","MEAN_MOTION_DOT":"0.00001448","TLE_LINE1":"1 53424U 22097AN  23155.88805306  .00001448  00000-0  10903-3 0  9995","TIME_SYSTEM":"UTC","APOAPSIS":"540.465"},{"ARG_OF_PERICENTER":"94.2028","CLASSIFICATION_TYPE":"U","MEAN_ANOMALY":"265.9087","MEAN_MOTION":"15.08840499","SEMIMAJOR_AXIS":"6917.879","EPOCH":"2023-06-04T19:59:18.828384","OBJECT_ID":"2022-097AP","MEAN_ELEMENT_THEORY":"SGP4","BSTAR":"0.00012558000000","ECCENTRICITY":"0.00010740","LAUNCH_DATE":"2022-08-10","MEAN_MOTION_DDOT":"0.0000000000000","RCS_SIZE":"LARGE","MEAN_MOTION_DOT":"0.00001711","EPHEMERIS_TYPE":"0","TLE_LINE1":"1 53425U 22097AP  23155.83285681  .00001711  00000-0  12558-3 0  9990","TIME_SYSTEM":"UTC","APOAPSIS":"540.487","DECAY_DATE":null,"REF_FRAME":"TEME","RA_OF_ASC_NODE":"323.0547","INCLINATION":"53.2168","GP_ID":"233217957","TLE_LINE2":"2 53425  53.2168 323.0547 0001074  94.2028 265.9087 15.08840499 46316","OBJECT_NAME":"STARLINK-4531","FILE":"3925173","OBJECT_TYPE":"PAYLOAD","COUNTRY_CODE":"US","PERIAPSIS":"539.001","ELEMENT_SET_NO":"999","PERIOD":"95.438","REV_AT_EPOCH":"4631","NORAD_CAT_ID":"53425","CENTER_NAME":"EARTH","SITE":"AFETR"},{"TLE_LINE2":"2 53426  53.2154 313.0568 0000603  83.2506 276.8555 15.08823873 46486","GP_ID":"233218709","INCLINATION":"53.2154","DECAY_DATE":null,"REF_FRAME":"TEME","RA_OF_ASC_NODE":"313.0568","PERIAPSIS":"539.378","ELEMENT_SET_NO":"999","OBJECT_TYPE":"PAYLOAD","COUNTRY_CODE":"US","FILE":"3925173","OBJECT_NAME":"STARLINK-4558","NORAD_CAT_ID":"53426","REV_AT_EPOCH":"4648","PERIOD":"95.439","SITE":"AFETR","CENTER_NAME":"EARTH","MEAN_ELEMENT_THEORY":"SGP4","OBJECT_ID":"2022-097AQ","MEAN_MOTION":"15.08823873","SEMIMAJOR_AXIS":"6917.930","EPOCH":"2023-06-04T20:48:22.329504","ARG_OF_PERICENTER":"83.2506","MEAN_ANOMALY":"276.8555","CLASSIFICATION_TYPE":"U","LAUNCH_DATE":"2022-08-10","MEAN_MOTION_DDOT":"0.0000000000000","ECCENTRICITY":"0.00006030","BSTAR":"0.00004223200000","EPHEMERIS_TYPE":"0","RCS_SIZE":"LARGE","MEAN_MOTION_DOT":"0.00000384","APOAPSIS":"540.212","TIME_SYSTEM":"UTC","TLE_LINE1":"1 53426U 22097AQ  23155.86692511  .00000384  00000-0  42232-4 0  9996"},{"FILE":"3925173","OBJECT_NAME":"STARLINK-4541","ELEMENT_SET_NO":"999","PERIAPSIS":"539.086","OBJECT_TYPE":"PAYLOAD","COUNTRY_CODE":"US","INCLINATION":"53.2175","RA_OF_ASC_NODE":"323.0879","REF_FRAME":"TEME","DECAY_DATE":null,"TLE_LINE2":"2 53427  53.2175 323.0879 0000936  83.1962 276.9137 15.08843897 46340","GP_ID":"233219460","SITE":"AFETR","CENTER_NAME":"EARTH","PERIOD":"95.437","NORAD_CAT_ID":"53427","REV_AT_EPOCH":"4634","ECCENTRICITY":"0.00009360","BSTAR":"0.00015602000000","MEAN_MOTION_DDOT":"0.0000000000000","LAUNCH_DATE":"2022-08-10","EPOCH":"2023-06-04T19:48:42.595200","SEMIMAJOR_AXIS":"6917.868","MEAN_MOTION":"15.08843897","MEAN_ANOMALY":"276.9137","CLASSIFICATION_TYPE":"U","ARG_OF_PERICENTER":"83.1962","MEAN_ELEMENT_THEORY":"SGP4","OBJECT_ID":"2022-097AR","TLE_LINE1":"1 53427U 22097AR  23155.82549300  .00002196  00000-0  15602-3 0  9993","TIME_SYSTEM":"UTC","APOAPSIS":"540.381","EPHEMERIS_TYPE":"0","MEAN_MOTION_DOT":"0.00002196","RCS_SIZE":"LARGE"},{"NORAD_CAT_ID":"53428","REV_AT_EPOCH":"4646","PERIOD":"95.438","SITE":"AFETR","CENTER_NAME":"EARTH","TLE_LINE2":"2 53428  53.2170 313.6070 0000982  83.2411 276.8693 15.08840792 46465","GP_ID":"233218208","INCLINATION":"53.2170","RA_OF_ASC_NODE":"313.6070","REF_FRAME":"TEME","DECAY_DATE":null,"ELEMENT_SET_NO":"999","PERIAPSIS":"539.064","COUNTRY_CODE":"US","OBJECT_TYPE":"PAYLOAD","FILE":"3925173","OBJECT_NAME":"STARLINK-4540","EPHEMERIS_TYPE":"0","MEAN_MOTION_DOT":"0.00000508","RCS_SIZE":"LARGE","APOAPSIS":"540.422","TLE_LINE1":"1 53428U 22097AS  23155.72706376  .00000508  00000-0  49975-4 0  9997","TIME_SYSTEM":"UTC","MEAN_ELEMENT_THEORY":"SGP4","OBJECT_ID":"2022-097AS","SEMIMAJOR_AXIS":"6917.878","EPOCH":"2023-06-04T17:26:58.308864","MEAN_MOTION":"15.08840792","CLASSIFICATION_TYPE":"U","MEAN_ANOMALY":"276.8693","ARG_OF_PERICENTER":"83.2411","MEAN_MOTION_DDOT":"0.0000000000000","LAUNCH_DATE":"2022-08-10","BSTAR":"0.00004997500000","ECCENTRICITY":"0.00009820"},{"CENTER_NAME":"EARTH","SITE":"AFETR","PERIOD":"95.438","REV_AT_EPOCH":"4645","NORAD_CAT_ID":"53429","OBJECT_NAME":"STARLINK-4543","FILE":"3925173","COUNTRY_CODE":"US","OBJECT_TYPE":"PAYLOAD","PERIAPSIS":"539.053","ELEMENT_SET_NO":"999","DECAY_DATE":null,"REF_FRAME":"TEME","RA_OF_ASC_NODE":"313.9274","INCLINATION":"53.2176","GP_ID":"233218458","TLE_LINE2":"2 53429  53.2176 313.9274 0000998  82.2856 277.8249 15.08840785 46459","TIME_SYSTEM":"UTC","TLE_LINE1":"1 53429U 22097AT  23155.66450871  .00000803  00000-0  68543-4 0  9997","APOAPSIS":"540.433","RCS_SIZE":"LARGE","MEAN_MOTION_DOT":"0.00000803","EPHEMERIS_TYPE":"0","BSTAR":"0.00006854300000","ECCENTRICITY":"0.00009980","LAUNCH_DATE":"2022-08-10","MEAN_MOTION_DDOT":"0.0000000000000","ARG_OF_PERICENTER":"82.2856","CLASSIFICATION_TYPE":"U","MEAN_ANOMALY":"277.8249","MEAN_MOTION":"15.08840785","SEMIMAJOR_AXIS":"6917.878","EPOCH":"2023-06-04T15:56:53.552544","OBJECT_ID":"2022-097AT","MEAN_ELEMENT_THEORY":"SGP4"},{"TLE_LINE2":"2 53430  53.2166 313.5855 0001071  85.7168 274.3947 15.08841216 46444","GP_ID":"233219210","INCLINATION":"53.2166","RA_OF_ASC_NODE":"313.5855","REF_FRAME":"TEME","DECAY_DATE":null,"ELEMENT_SET_NO":"999","PERIAPSIS":"539.001","COUNTRY_CODE":"US","OBJECT_TYPE":"PAYLOAD","FILE":"3925173","OBJECT_NAME":"STARLINK-4538","NORAD_CAT_ID":"53430","REV_AT_EPOCH":"4644","PERIOD":"95.437","SITE":"AFETR","CENTER_NAME":"EARTH","MEAN_ELEMENT_THEORY":"SGP4","OBJECT_ID":"2022-097AU","EPOCH":"2023-06-04T17:21:39.946464","SEMIMAJOR_AXIS":"6917.877","MEAN_MOTION":"15.08841216","CLASSIFICATION_TYPE":"U","MEAN_ANOMALY":"274.3947","ARG_OF_PERICENTER":"85.7168","MEAN_MOTION_DDOT":"0.0000000000000","LAUNCH_DATE":"2022-08-10","BSTAR":"0.00007595900000","ECCENTRICITY":"0.00010710","EPHEMERIS_TYPE":"0","MEAN_MOTION_DOT":"0.00000921","RCS_SIZE":"LARGE","APOAPSIS":"540.483","TIME_SYSTEM":"UTC","TLE_LINE1":"1 53430U 22097AU  23155.72337901  .00000921  00000-0  75959-4 0  9994"}];
